ORBCOMM FM33            
1 25983U 99065D   24327.90837856  .00003351  00000+0  11225-2 0  9994
2 25983  45.0277 258.9566 0007840  94.8647 265.3098 14.38927307306345
ORBCOMM FM36            
1 25984U 99065E   24327.46212830  .00003324  00000+0  11580-2 0  9999
2 25984  45.0403 349.8176 0004906 317.8053  42.2417 14.37003016304675
ORBCOMM FM35            
1 25985U 99065F   24327.44420956  .00001962  00000+0  71462-3 0  9990
2 25985  45.0409 353.4248 0001494  56.8822 303.2169 14.36201738305053
ORBCOMM FM34            
1 25986U 99065G   24327.55484061  .00002316  00000+0  83420-3 0  9991
2 25986  45.0401 353.4409 0003617 351.8441   8.2348 14.36231308305225
ORBCOMM FM38            
1 33060U 08031A   24327.90410362  .00004947  00000+0  68076-3 0  9990
2 33060  48.4391 217.1485 0005793 228.1098 131.9323 14.79584909884182
ORBCOMM FM41            
1 33061U 08031B   24326.99735316  .00004373  00000+0  61013-3 0  9995
2 33061  48.4427 228.5694 0004934 210.7485 266.3192 14.79225529883540
ORBCOMM FM29            
1 33062U 08031C   24327.86186524  .00005208  00000+0  72067-3 0  9993
2 33062  48.4379 232.4633 0006604 213.7445 227.7184 14.79254816883586
ORBCOMM FM39            
1 33063U 08031D   24327.89116699  .00004605  00000+0  65930-3 0  9994
2 33063  48.4397 254.4814 0007330 189.7626 170.3147 14.78017539883267
