<?xml version="1.0" encoding="UTF-8"?>
<ndm xmlns:xsi="http://www.w3.org/2001/XMLSchema-instance" xsi:noNamespaceSchemaLocation="https://sanaregistry.org/r/ndmxml_unqualified/ndmxml-2.0.0-master-2.0.xsd">
<omm id="CCSDS_OMM_VERS" version="2.0">
<header><CREATION_DATE/><ORIGINATOR/></header><body><segment><metadata><OBJECT_NAME>ORBCOMM FM33</OBJECT_NAME><OBJECT_ID>1999-065D</OBJECT_ID><CENTER_NAME>EARTH</CENTER_NAME><REF_FRAME>TEME</REF_FRAME><TIME_SYSTEM>UTC</TIME_SYSTEM><MEAN_ELEMENT_THEORY>SGP4</MEAN_ELEMENT_THEORY></metadata><data><meanElements><EPOCH>2024-11-22T21:48:03.907584</EPOCH><MEAN_MOTION>14.38927307</MEAN_MOTION><ECCENTRICITY>.000784</ECCENTRICITY><INCLINATION>45.0277</INCLINATION><RA_OF_ASC_NODE>258.9566</RA_OF_ASC_NODE><ARG_OF_PERICENTER>94.8647</ARG_OF_PERICENTER><MEAN_ANOMALY>265.3098</MEAN_ANOMALY></meanElements><tleParameters><EPHEMERIS_TYPE>0</EPHEMERIS_TYPE><CLASSIFICATION_TYPE>U</CLASSIFICATION_TYPE><NORAD_CAT_ID>25983</NORAD_CAT_ID><ELEMENT_SET_NO>999</ELEMENT_SET_NO><REV_AT_EPOCH>30634</REV_AT_EPOCH><BSTAR>.11225E-2</BSTAR><MEAN_MOTION_DOT>.3351E-4</MEAN_MOTION_DOT><MEAN_MOTION_DDOT>0</MEAN_MOTION_DDOT></tleParameters></data></segment></body></omm>
<omm id="CCSDS_OMM_VERS" version="2.0">
<header><CREATION_DATE/><ORIGINATOR/></header><body><segment><metadata><OBJECT_NAME>ORBCOMM FM36</OBJECT_NAME><OBJECT_ID>1999-065E</OBJECT_ID><CENTER_NAME>EARTH</CENTER_NAME><REF_FRAME>TEME</REF_FRAME><TIME_SYSTEM>UTC</TIME_SYSTEM><MEAN_ELEMENT_THEORY>SGP4</MEAN_ELEMENT_THEORY></metadata><data><meanElements><EPOCH>2024-11-22T11:05:27.885120</EPOCH><MEAN_MOTION>14.37003016</MEAN_MOTION><ECCENTRICITY>.0004906</ECCENTRICITY><INCLINATION>45.0403</INCLINATION><RA_OF_ASC_NODE>349.8176</RA_OF_ASC_NODE><ARG_OF_PERICENTER>317.8053</ARG_OF_PERICENTER><MEAN_ANOMALY>42.2417</MEAN_ANOMALY></meanElements><tleParameters><EPHEMERIS_TYPE>0</EPHEMERIS_TYPE><CLASSIFICATION_TYPE>U</CLASSIFICATION_TYPE><NORAD_CAT_ID>25984</NORAD_CAT_ID><ELEMENT_SET_NO>999</ELEMENT_SET_NO><REV_AT_EPOCH>30467</REV_AT_EPOCH><BSTAR>.1158E-2</BSTAR><MEAN_MOTION_DOT>.3324E-4</MEAN_MOTION_DOT><MEAN_MOTION_DDOT>0</MEAN_MOTION_DDOT></tleParameters></data></segment></body></omm>
<omm id="CCSDS_OMM_VERS" version="2.0">
<header><CREATION_DATE/><ORIGINATOR/></header><body><segment><metadata><OBJECT_NAME>ORBCOMM FM35</OBJECT_NAME><OBJECT_ID>1999-065F</OBJECT_ID><CENTER_NAME>EARTH</CENTER_NAME><REF_FRAME>TEME</REF_FRAME><TIME_SYSTEM>UTC</TIME_SYSTEM><MEAN_ELEMENT_THEORY>SGP4</MEAN_ELEMENT_THEORY></metadata><data><meanElements><EPOCH>2024-11-22T10:39:39.705984</EPOCH><MEAN_MOTION>14.36201738</MEAN_MOTION><ECCENTRICITY>.0001494</ECCENTRICITY><INCLINATION>45.0409</INCLINATION><RA_OF_ASC_NODE>353.4248</RA_OF_ASC_NODE><ARG_OF_PERICENTER>56.8822</ARG_OF_PERICENTER><MEAN_ANOMALY>303.2169</MEAN_ANOMALY></meanElements><tleParameters><EPHEMERIS_TYPE>0</EPHEMERIS_TYPE><CLASSIFICATION_TYPE>U</CLASSIFICATION_TYPE><NORAD_CAT_ID>25985</NORAD_CAT_ID><ELEMENT_SET_NO>999</ELEMENT_SET_NO><REV_AT_EPOCH>30505</REV_AT_EPOCH><BSTAR>.71462E-3</BSTAR><MEAN_MOTION_DOT>.1962E-4</MEAN_MOTION_DOT><MEAN_MOTION_DDOT>0</MEAN_MOTION_DDOT></tleParameters></data></segment></body></omm>
<omm id="CCSDS_OMM_VERS" version="2.0">
<header><CREATION_DATE/><ORIGINATOR/></header><body><segment><metadata><OBJECT_NAME>ORBCOMM FM34</OBJECT_NAME><OBJECT_ID>1999-065G</OBJECT_ID><CENTER_NAME>EARTH</CENTER_NAME><REF_FRAME>TEME</REF_FRAME><TIME_SYSTEM>UTC</TIME_SYSTEM><MEAN_ELEMENT_THEORY>SGP4</MEAN_ELEMENT_THEORY></metadata><data><meanElements><EPOCH>2024-11-22T13:18:58.228704</EPOCH><MEAN_MOTION>14.36231308</MEAN_MOTION><ECCENTRICITY>.0003617</ECCENTRICITY><INCLINATION>45.0401</INCLINATION><RA_OF_ASC_NODE>353.4409</RA_OF_ASC_NODE><ARG_OF_PERICENTER>351.8441</ARG_OF_PERICENTER><MEAN_ANOMALY>8.2348</MEAN_ANOMALY></meanElements><tleParameters><EPHEMERIS_TYPE>0</EPHEMERIS_TYPE><CLASSIFICATION_TYPE>U</CLASSIFICATION_TYPE><NORAD_CAT_ID>25986</NORAD_CAT_ID><ELEMENT_SET_NO>999</ELEMENT_SET_NO><REV_AT_EPOCH>30522</REV_AT_EPOCH><BSTAR>.8342E-3</BSTAR><MEAN_MOTION_DOT>.2316E-4</MEAN_MOTION_DOT><MEAN_MOTION_DDOT>0</MEAN_MOTION_DDOT></tleParameters></data></segment></body></omm>
<omm id="CCSDS_OMM_VERS" version="2.0">
<header><CREATION_DATE/><ORIGINATOR/></header><body><segment><metadata><OBJECT_NAME>ORBCOMM FM38</OBJECT_NAME><OBJECT_ID>2008-031A</OBJECT_ID><CENTER_NAME>EARTH</CENTER_NAME><REF_FRAME>TEME</REF_FRAME><TIME_SYSTEM>UTC</TIME_SYSTEM><MEAN_ELEMENT_THEORY>SGP4</MEAN_ELEMENT_THEORY></metadata><data><meanElements><EPOCH>2024-11-22T21:41:54.552768</EPOCH><MEAN_MOTION>14.79584909</MEAN_MOTION><ECCENTRICITY>.0005793</ECCENTRICITY><INCLINATION>48.4391</INCLINATION><RA_OF_ASC_NODE>217.1485</RA_OF_ASC_NODE><ARG_OF_PERICENTER>228.1098</ARG_OF_PERICENTER><MEAN_ANOMALY>131.9323</MEAN_ANOMALY></meanElements><tleParameters><EPHEMERIS_TYPE>0</EPHEMERIS_TYPE><CLASSIFICATION_TYPE>U</CLASSIFICATION_TYPE><NORAD_CAT_ID>33060</NORAD_CAT_ID><ELEMENT_SET_NO>999</ELEMENT_SET_NO><REV_AT_EPOCH>88418</REV_AT_EPOCH><BSTAR>.68076E-3</BSTAR><MEAN_MOTION_DOT>.4947E-4</MEAN_MOTION_DOT><MEAN_MOTION_DDOT>0</MEAN_MOTION_DDOT></tleParameters></data></segment></body></omm>
<omm id="CCSDS_OMM_VERS" version="2.0">
<header><CREATION_DATE/><ORIGINATOR/></header><body><segment><metadata><OBJECT_NAME>ORBCOMM FM41</OBJECT_NAME><OBJECT_ID>2008-031B</OBJECT_ID><CENTER_NAME>EARTH</CENTER_NAME><REF_FRAME>TEME</REF_FRAME><TIME_SYSTEM>UTC</TIME_SYSTEM><MEAN_ELEMENT_THEORY>SGP4</MEAN_ELEMENT_THEORY></metadata><data><meanElements><EPOCH>2024-11-21T23:56:11.313024</EPOCH><MEAN_MOTION>14.79225529</MEAN_MOTION><ECCENTRICITY>.0004934</ECCENTRICITY><INCLINATION>48.4427</INCLINATION><RA_OF_ASC_NODE>228.5694</RA_OF_ASC_NODE><ARG_OF_PERICENTER>210.7485</ARG_OF_PERICENTER><MEAN_ANOMALY>266.3192</MEAN_ANOMALY></meanElements><tleParameters><EPHEMERIS_TYPE>0</EPHEMERIS_TYPE><CLASSIFICATION_TYPE>U</CLASSIFICATION_TYPE><NORAD_CAT_ID>33061</NORAD_CAT_ID><ELEMENT_SET_NO>999</ELEMENT_SET_NO><REV_AT_EPOCH>88354</REV_AT_EPOCH><BSTAR>.61013E-3</BSTAR><MEAN_MOTION_DOT>.4373E-4</MEAN_MOTION_DOT><MEAN_MOTION_DDOT>0</MEAN_MOTION_DDOT></tleParameters></data></segment></body></omm>
<omm id="CCSDS_OMM_VERS" version="2.0">
<header><CREATION_DATE/><ORIGINATOR/></header><body><segment><metadata><OBJECT_NAME>ORBCOMM FM29</OBJECT_NAME><OBJECT_ID>2008-031C</OBJECT_ID><CENTER_NAME>EARTH</CENTER_NAME><REF_FRAME>TEME</REF_FRAME><TIME_SYSTEM>UTC</TIME_SYSTEM><MEAN_ELEMENT_THEORY>SGP4</MEAN_ELEMENT_THEORY></metadata><data><meanElements><EPOCH>2024-11-22T20:41:05.156736</EPOCH><MEAN_MOTION>14.79254816</MEAN_MOTION><ECCENTRICITY>.0006604</ECCENTRICITY><INCLINATION>48.4379</INCLINATION><RA_OF_ASC_NODE>232.4633</RA_OF_ASC_NODE><ARG_OF_PERICENTER>213.7445</ARG_OF_PERICENTER><MEAN_ANOMALY>227.7184</MEAN_ANOMALY></meanElements><tleParameters><EPHEMERIS_TYPE>0</EPHEMERIS_TYPE><CLASSIFICATION_TYPE>U</CLASSIFICATION_TYPE><NORAD_CAT_ID>33062</NORAD_CAT_ID><ELEMENT_SET_NO>999</ELEMENT_SET_NO><REV_AT_EPOCH>88358</REV_AT_EPOCH><BSTAR>.72067E-3</BSTAR><MEAN_MOTION_DOT>.5208E-4</MEAN_MOTION_DOT><MEAN_MOTION_DDOT>0</MEAN_MOTION_DDOT></tleParameters></data></segment></body></omm>
<omm id="CCSDS_OMM_VERS" version="2.0">
<header><CREATION_DATE/><ORIGINATOR/></header><body><segment><metadata><OBJECT_NAME>ORBCOMM FM39</OBJECT_NAME><OBJECT_ID>2008-031D</OBJECT_ID><CENTER_NAME>EARTH</CENTER_NAME><REF_FRAME>TEME</REF_FRAME><TIME_SYSTEM>UTC</TIME_SYSTEM><MEAN_ELEMENT_THEORY>SGP4</MEAN_ELEMENT_THEORY></metadata><data><meanElements><EPOCH>2024-11-22T21:23:16.827936</EPOCH><MEAN_MOTION>14.78017539</MEAN_MOTION><ECCENTRICITY>.000733</ECCENTRICITY><INCLINATION>48.4397</INCLINATION><RA_OF_ASC_NODE>254.4814</RA_OF_ASC_NODE><ARG_OF_PERICENTER>189.7626</ARG_OF_PERICENTER><MEAN_ANOMALY>170.3147</MEAN_ANOMALY></meanElements><tleParameters><EPHEMERIS_TYPE>0</EPHEMERIS_TYPE><CLASSIFICATION_TYPE>U</CLASSIFICATION_TYPE><NORAD_CAT_ID>33063</NORAD_CAT_ID><ELEMENT_SET_NO>999</ELEMENT_SET_NO><REV_AT_EPOCH>88326</REV_AT_EPOCH><BSTAR>.6593E-3</BSTAR><MEAN_MOTION_DOT>.4605E-4</MEAN_MOTION_DOT><MEAN_MOTION_DDOT>0</MEAN_MOTION_DDOT></tleParameters></data></segment></body></omm>

</ndm>
